start=new Date('2021-09-12T00:00:00.000Z').valueOf();
sats=[{"RA_OF_ASC_NODE":"73.7932","RCS_SIZE":"LARGE","DECAY_DATE":null,"COUNTRY_CODE":"US","INCLINATION":"53.0563","EPHEMERIS_TYPE":"0","BSTAR":"0.00007732800000","MEAN_ELEMENT_THEORY":"SGP4","OBJECT_TYPE":"PAYLOAD","TLE_LINE2":"2 47876  53.0563  73.7932 0002116 106.3717 253.7505 15.06399156 29016","PERIAPSIS":"545.751","LAUNCH_DATE":"2021-03-14","OBJECT_ID":"2021-021S","MEAN_MOTION_DOT":"0.00000870","FILE":"3113379","SEMIMAJOR_AXIS":"6925.351","TLE_LINE1":"1 47876U 21021S   21254.70293660  .00000870  00000-0  77328-4 0  9991","ECCENTRICITY":"0.00021160","CENTER_NAME":"EARTH","APOAPSIS":"548.682","SITE":"AFETR","EPOCH":"2021-09-11T16:52:13.722240","MEAN_MOTION":"15.06399156","NORAD_CAT_ID":"47876","REF_FRAME":"TEME","REV_AT_EPOCH":"2901","ARG_OF_PERICENTER":"106.3717","OBJECT_NAME":"STARLINK-2332","GP_ID":"184534658","MEAN_MOTION_DDOT":"0.0000000000000","TIME_SYSTEM":"UTC","MEAN_ANOMALY":"253.7505","CLASSIFICATION_TYPE":"U","PERIOD":"95.592","ELEMENT_SET_NO":"999"},{"ELEMENT_SET_NO":"999","PERIOD":"95.592","CLASSIFICATION_TYPE":"U","MEAN_ANOMALY":"250.1042","GP_ID":"184534908","MEAN_MOTION_DDOT":"0.0000000000000","TIME_SYSTEM":"UTC","OBJECT_NAME":"STARLINK-2333","ARG_OF_PERICENTER":"110.0169","REV_AT_EPOCH":"2900","REF_FRAME":"TEME","NORAD_CAT_ID":"47877","MEAN_MOTION":"15.06396057","EPOCH":"2021-09-11T17:13:27.262560","SITE":"AFETR","APOAPSIS":"548.657","CENTER_NAME":"EARTH","SEMIMAJOR_AXIS":"6925.361","TLE_LINE1":"1 47877U 21021T   21254.71767665 -.00001021  00000-0 -49634-4 0  9994","ECCENTRICITY":"0.00020670","FILE":"3113379","MEAN_MOTION_DOT":"-0.00001021","LAUNCH_DATE":"2021-03-14","OBJECT_ID":"2021-021T","PERIAPSIS":"545.794","TLE_LINE2":"2 47877  53.0541  73.7283 0002067 110.0169 250.1042 15.06396057 29003","MEAN_ELEMENT_THEORY":"SGP4","OBJECT_TYPE":"PAYLOAD","BSTAR":"-0.00004963400000","EPHEMERIS_TYPE":"0","INCLINATION":"53.0541","DECAY_DATE":null,"COUNTRY_CODE":"US","RCS_SIZE":"LARGE","RA_OF_ASC_NODE":"73.7283"},{"BSTAR":"-0.00001195500000","EPHEMERIS_TYPE":"0","INCLINATION":"53.0567","DECAY_DATE":null,"COUNTRY_CODE":"US","RCS_SIZE":"LARGE","RA_OF_ASC_NODE":"73.6793","PERIAPSIS":"546.062","TLE_LINE2":"2 47878  53.0567  73.6793 0001676  96.6715 263.4465 15.06396926 28806","MEAN_ELEMENT_THEORY":"SGP4","OBJECT_TYPE":"PAYLOAD","MEAN_MOTION_DOT":"-0.00000460","OBJECT_ID":"2021-021U","LAUNCH_DATE":"2021-03-14","SEMIMAJOR_AXIS":"6925.358","TLE_LINE1":"1 47878U 21021U   21254.72873748 -.00000460  00000-0 -11955-4 0  9997","ECCENTRICITY":"0.00016760","FILE":"3113379","CENTER_NAME":"EARTH","REF_FRAME":"TEME","NORAD_CAT_ID":"47878","EPOCH":"2021-09-11T17:29:22.918272","MEAN_MOTION":"15.06396926","SITE":"AFETR","APOAPSIS":"548.384","MEAN_ANOMALY":"263.4465","TIME_SYSTEM":"UTC","GP_ID":"184535160","MEAN_MOTION_DDOT":"0.0000000000000","OBJECT_NAME":"STARLINK-2335","ARG_OF_PERICENTER":"96.6715","REV_AT_EPOCH":"2880","ELEMENT_SET_NO":"999","PERIOD":"95.592","CLASSIFICATION_TYPE":"U"},{"FILE":"3113379","TLE_LINE1":"1 47879U 21021V   21254.72550401  .00001488  00000-0  11877-3 0  9997","SEMIMAJOR_AXIS":"6925.361","ECCENTRICITY":"0.00021670","OBJECT_ID":"2021-021V","LAUNCH_DATE":"2021-03-14","MEAN_MOTION_DOT":"0.00001488","OBJECT_TYPE":"PAYLOAD","MEAN_ELEMENT_THEORY":"SGP4","TLE_LINE2":"2 47879  53.0583  88.7027 0002167  82.6270 277.4965 15.06396099 28978","PERIAPSIS":"545.725","RA_OF_ASC_NODE":"88.7027","RCS_SIZE":"LARGE","DECAY_DATE":null,"COUNTRY_CODE":"US","BSTAR":"0.00011877000000","EPHEMERIS_TYPE":"0","INCLINATION":"53.0583","PERIOD":"95.592","CLASSIFICATION_TYPE":"U","ELEMENT_SET_NO":"999","REV_AT_EPOCH":"2897","OBJECT_NAME":"STARLINK-2336","ARG_OF_PERICENTER":"82.6270","MEAN_ANOMALY":"277.4965","TIME_SYSTEM":"UTC","GP_ID":"184535910","MEAN_MOTION_DDOT":"0.0000000000000","SITE":"AFETR","APOAPSIS":"548.726","NORAD_CAT_ID":"47879","MEAN_MOTION":"15.06396099","EPOCH":"2021-09-11T17:24:43.546464","REF_FRAME":"TEME","CENTER_NAME":"EARTH"},{"CENTER_NAME":"EARTH","REF_FRAME":"TEME","APOAPSIS":"548.612","SITE":"AFETR","MEAN_MOTION":"15.06396825","EPOCH":"2021-09-11T18:25:04.382112","NORAD_CAT_ID":"47880","GP_ID":"184534159","TIME_SYSTEM":"UTC","MEAN_MOTION_DDOT":"0.0000000000000","MEAN_ANOMALY":"272.3301","REV_AT_EPOCH":"2887","ARG_OF_PERICENTER":"87.7918","OBJECT_NAME":"STARLINK-2337","ELEMENT_SET_NO":"999","CLASSIFICATION_TYPE":"U","PERIOD":"95.592","DECAY_DATE":null,"COUNTRY_CODE":"US","INCLINATION":"53.0546","EPHEMERIS_TYPE":"0","BSTAR":"0.00010080000000","RA_OF_ASC_NODE":"83.5009","RCS_SIZE":"LARGE","TLE_LINE2":"2 47880  53.0546  83.5009 0002005  87.7918 272.3301 15.06396825 28872","PERIAPSIS":"545.835","MEAN_ELEMENT_THEORY":"SGP4","OBJECT_TYPE":"PAYLOAD","OBJECT_ID":"2021-021W","LAUNCH_DATE":"2021-03-14","MEAN_MOTION_DOT":"0.00001220","FILE":"3113379","TLE_LINE1":"1 47880U 21021W   21254.76741183  .00001220  00000-0  10080-3 0  9991","ECCENTRICITY":"0.00020050","SEMIMAJOR_AXIS":"6925.358"},{"REF_FRAME":"TEME","NORAD_CAT_ID":"47881","MEAN_MOTION":"15.06399523","EPOCH":"2021-09-11T17:22:44.648832","SITE":"AFETR","APOAPSIS":"548.166","CENTER_NAME":"EARTH","ELEMENT_SET_NO":"999","PERIOD":"95.592","CLASSIFICATION_TYPE":"U","MEAN_ANOMALY":"311.0331","TIME_SYSTEM":"UTC","GP_ID":"184534409","MEAN_MOTION_DDOT":"0.0000000000000","OBJECT_NAME":"STARLINK-2339","ARG_OF_PERICENTER":"49.0777","REV_AT_EPOCH":"2883","TLE_LINE2":"2 47881  53.0560  83.5905 0001373  49.0777 311.0331 15.06399523 28833","PERIAPSIS":"546.264","MEAN_ELEMENT_THEORY":"SGP4","OBJECT_TYPE":"PAYLOAD","BSTAR":"0.00008800300000","INCLINATION":"53.0560","EPHEMERIS_TYPE":"0","DECAY_DATE":null,"COUNTRY_CODE":"US","RCS_SIZE":"LARGE","RA_OF_ASC_NODE":"83.5905","TLE_LINE1":"1 47881U 21021X   21254.72412788  .00001030  00000-0  88003-4 0  9994","SEMIMAJOR_AXIS":"6925.350","ECCENTRICITY":"0.00013730","FILE":"3113379","MEAN_MOTION_DOT":"0.00001030","LAUNCH_DATE":"2021-03-14","OBJECT_ID":"2021-021X"},{"FILE":"3113379","TLE_LINE1":"1 47882U 21021Y   21254.76558742  .00001167  00000-0  97228-4 0  9990","ECCENTRICITY":"0.00021730","SEMIMAJOR_AXIS":"6925.330","LAUNCH_DATE":"2021-03-14","OBJECT_ID":"2021-021Y","MEAN_MOTION_DOT":"0.00001167","PERIAPSIS":"545.690","TLE_LINE2":"2 47882  53.0554  73.5081 0002173 105.1424 254.9805 15.06406217 29182","MEAN_ELEMENT_THEORY":"SGP4","OBJECT_TYPE":"PAYLOAD","DECAY_DATE":null,"COUNTRY_CODE":"US","INCLINATION":"53.0554","EPHEMERIS_TYPE":"0","BSTAR":"0.00009722800000","RA_OF_ASC_NODE":"73.5081","RCS_SIZE":"LARGE","ELEMENT_SET_NO":"999","CLASSIFICATION_TYPE":"U","PERIOD":"95.592","MEAN_MOTION_DDOT":"0.0000000000000","GP_ID":"184535660","TIME_SYSTEM":"UTC","MEAN_ANOMALY":"254.9805","REV_AT_EPOCH":"2918","ARG_OF_PERICENTER":"105.1424","OBJECT_NAME":"STARLINK-2340","REF_FRAME":"TEME","SITE":"AFETR","APOAPSIS":"548.699","EPOCH":"2021-09-11T18:22:26.753088","MEAN_MOTION":"15.06406217","NORAD_CAT_ID":"47882","CENTER_NAME":"EARTH"},{"OBJECT_NAME":"STARLINK-2342","ARG_OF_PERICENTER":"102.9520","REV_AT_EPOCH":"2910","MEAN_ANOMALY":"257.1658","GP_ID":"184535411","TIME_SYSTEM":"UTC","MEAN_MOTION_DDOT":"0.0000000000000","PERIOD":"95.592","CLASSIFICATION_TYPE":"U","ELEMENT_SET_NO":"999","CENTER_NAME":"EARTH","NORAD_CAT_ID":"47883","EPOCH":"2021-09-11T16:06:26.882208","MEAN_MOTION":"15.06396047","APOAPSIS":"548.400","SITE":"AFETR","REF_FRAME":"TEME","MEAN_MOTION_DOT":"-0.00000548","OBJECT_ID":"2021-021Z","LAUNCH_DATE":"2021-03-14","ECCENTRICITY":"0.00016950","TLE_LINE1":"1 47883U 21021Z   21254.67114447 -.00000548  00000-0 -17888-4 0  9999","SEMIMAJOR_AXIS":"6925.361","FILE":"3113379","RCS_SIZE":"MEDIUM","RA_OF_ASC_NODE":"78.9318","BSTAR":"-0.00001788800000","INCLINATION":"53.0582","EPHEMERIS_TYPE":"0","DECAY_DATE":null,"COUNTRY_CODE":"US","MEAN_ELEMENT_THEORY":"SGP4","OBJECT_TYPE":"PAYLOAD","TLE_LINE2":"2 47883  53.0582  78.9318 0001695 102.9520 257.1658 15.06396047 29108","PERIAPSIS":"546.052"},{"CLASSIFICATION_TYPE":"U","PERIOD":"95.593","ELEMENT_SET_NO":"999","ARG_OF_PERICENTER":"90.4100","OBJECT_NAME":"STARLINK-2343","REV_AT_EPOCH":"2886","GP_ID":"184534659","TIME_SYSTEM":"UTC","MEAN_MOTION_DDOT":"0.0000000000000","MEAN_ANOMALY":"269.7109","MEAN_MOTION":"15.06393825","EPOCH":"2021-09-11T17:17:26.440224","NORAD_CAT_ID":"47884","APOAPSIS":"548.566","SITE":"AFETR","REF_FRAME":"TEME","CENTER_NAME":"EARTH","TLE_LINE1":"1 47884U 21021AA  21254.72044491  .00000997  00000-0  85812-4 0  9995","SEMIMAJOR_AXIS":"6925.367","ECCENTRICITY":"0.00019250","FILE":"3113379","MEAN_MOTION_DOT":"0.00000997","OBJECT_ID":"2021-021AA","LAUNCH_DATE":"2021-03-14","OBJECT_TYPE":"PAYLOAD","MEAN_ELEMENT_THEORY":"SGP4","PERIAPSIS":"545.899","TLE_LINE2":"2 47884  53.0519  83.7306 0001925  90.4100 269.7109 15.06393825 28864","RCS_SIZE":"LARGE","RA_OF_ASC_NODE":"83.7306","EPHEMERIS_TYPE":"0","INCLINATION":"53.0519","BSTAR":"0.00008581200000","DECAY_DATE":null,"COUNTRY_CODE":"US"},{"RA_OF_ASC_NODE":"88.7418","RCS_SIZE":"LARGE","DECAY_DATE":null,"COUNTRY_CODE":"US","BSTAR":"-0.00000308630000","INCLINATION":"53.0549","EPHEMERIS_TYPE":"0","OBJECT_TYPE":"PAYLOAD","MEAN_ELEMENT_THEORY":"SGP4","TLE_LINE2":"2 47885  53.0549  88.7418 0001924  75.6539 284.4663 15.06398081 28955","PERIAPSIS":"545.887","LAUNCH_DATE":"2021-03-14","OBJECT_ID":"2021-021AB","MEAN_MOTION_DOT":"-0.00000328","FILE":"3113379","TLE_LINE1":"1 47885U 21021AB  21254.71445409 -.00000328  00000-0 -30863-5 0  9996","ECCENTRICITY":"0.00019240","SEMIMAJOR_AXIS":"6925.354","CENTER_NAME":"EARTH","APOAPSIS":"548.552","SITE":"AFETR","NORAD_CAT_ID":"47885","EPOCH":"2021-09-11T17:08:48.833376","MEAN_MOTION":"15.06398081","REF_FRAME":"TEME","REV_AT_EPOCH":"2895","OBJECT_NAME":"STARLINK-2344","ARG_OF_PERICENTER":"75.6539","MEAN_ANOMALY":"284.4663","TIME_SYSTEM":"UTC","GP_ID":"184534909","MEAN_MOTION_DDOT":"0.0000000000000","PERIOD":"95.592","CLASSIFICATION_TYPE":"U","ELEMENT_SET_NO":"999"}];
